STARLINK-36881          
1 67962U 26038B   26079.16668981 -.02332138  00000+0 -32229-1 0  9990
2 67962  97.2850  89.9638 0001414  97.0463 274.7963 15.60510256  4884
STARLINK-36357          
1 67963U 26038C   26079.16668981 -.02501979  00000+0 -42530-1 0  9998
2 67963  97.2846  89.9362 0001491 102.0144 216.5539 15.55301525  4886
STARLINK-36349          
1 67964U 26038D   26079.16668981 -.02349688  00000+0 -39568-1 0  9993
2 67964  97.2845  89.9348 0001801 109.3035 201.9118 15.55299598  4881
STARLINK-36806          
1 67965U 26038E   26079.16668981 -.02332811  00000+0 -31125-1 0  9995
2 67965  97.2854  89.9754 0001369  87.9466 311.0983 15.61420720  4884
STARLINK-36820          
1 67966U 26038F   26079.16668981 -.02358785  00000+0 -31051-1 0  9992
2 67966  97.2848  89.9793 0001451  87.6916 320.9779 15.61805159  4885
STARLINK-36819          
1 67967U 26038G   26079.16668981 -.00022040  00000+0 -40461-3 0  9990
2 67967  97.2851  89.8398 0001100  83.2961   5.2138 15.49196328  4882
STARLINK-36812          
1 67968U 26038H   26079.16668981 -.02344287  00000+0 -30367-1 0  9995
2 67968  97.2851  89.9862 0001527  78.3213 346.0603 15.62194967  4883
STARLINK-36709          
1 67969U 26038J   26079.16668981 -.02332847  00000+0 -30483-1 0  9994
2 67969  97.2857  89.9911 0001468  77.2308 358.9666 15.61955650  4886
STARLINK-36319          
1 67970U 26038K   26079.16668981 -.02537558  00000+0 -41041-1 0  9994
2 67970  97.2844  89.9578 0001420  56.4968 312.9696 15.56697736  4854
STARLINK-36710          
1 67971U 26038L   26079.16668981 -.02340589  00000+0 -29486-1 0  9990
2 67971  97.2853  89.9990 0001397  73.3413  21.4004 15.62901717  4881
STARLINK-36894          
1 67972U 26038M   26079.16668981 -.02340384  00000+0 -29051-1 0  9992
2 67972  97.2856  90.0023 0001676  68.7688  35.1982 15.63273973  4881
STARLINK-36900          
1 67973U 26038N   26079.16668981 -.00027906  00000+0 -51327-3 0  9996
2 67973  97.2846  89.8984 0001128 119.2918 107.1071 15.49188240  4888
STARLINK-36901          
1 67974U 26038P   26079.16668981 -.02343000  00000+0 -28979-1 0  9990
2 67974  97.2857  90.0049 0001761  70.4984  40.2546 15.63367937  4883
STARLINK-36883          
1 67975U 26038Q   26079.16668981 -.02330714  00000+0 -33327-1 0  9992
2 67975  97.2849  90.0052 0001644  68.7676  41.4955 15.59617693  4886
STARLINK-36880          
1 67976U 26038R   26079.16668981 -.00099030  00000+0 -18374-2 0  9990
2 67976  97.2847  89.8738 0002111  92.3684  73.8925 15.49260117  4884
STARLINK-36904          
1 67977U 26038S   26079.16668981 -.02319354  00000+0 -33361-1 0  9999
2 67977  97.2851  90.0009 0001521  65.6592  34.7640 15.59446582  4883
STARLINK-36364          
1 67978U 26038T   26079.16668981 -.02408293  00000+0 -27427-1 0  9997
2 67978  97.2856  90.0277 0001818  87.3818  91.7223 15.65536014  4884
