[{"OBJECT_NAME":"STARLINK-36881","OBJECT_ID":"2026-038B","EPOCH":"2026-03-20T04:00:01.999584","MEAN_MOTION":15.60510256,"ECCENTRICITY":0.0001415,"INCLINATION":97.285,"RA_OF_ASC_NODE":89.9638,"ARG_OF_PERICENTER":97.0463,"MEAN_ANOMALY":274.7963,"EPHEMERIS_TYPE":0,"CLASSIFICATION_TYPE":"U","NORAD_CAT_ID":67962,"ELEMENT_SET_NO":999,"REV_AT_EPOCH":488,"BSTAR":-0.032229,"MEAN_MOTION_DOT":-0.02332138,"MEAN_MOTION_DDOT":0},{"OBJECT_NAME":"STARLINK-36357","OBJECT_ID":"2026-038C","EPOCH":"2026-03-20T04:00:01.999584","MEAN_MOTION":15.55301525,"ECCENTRICITY":0.0001492,"INCLINATION":97.2846,"RA_OF_ASC_NODE":89.9362,"ARG_OF_PERICENTER":102.0144,"MEAN_ANOMALY":216.5539,"EPHEMERIS_TYPE":0,"CLASSIFICATION_TYPE":"U","NORAD_CAT_ID":67963,"ELEMENT_SET_NO":999,"REV_AT_EPOCH":488,"BSTAR":-0.04253,"MEAN_MOTION_DOT":-0.02501979,"MEAN_MOTION_DDOT":0},{"OBJECT_NAME":"STARLINK-36349","OBJECT_ID":"2026-038D","EPOCH":"2026-03-20T04:00:01.999584","MEAN_MOTION":15.55299598,"ECCENTRICITY":0.0001801,"INCLINATION":97.2845,"RA_OF_ASC_NODE":89.9348,"ARG_OF_PERICENTER":109.3035,"MEAN_ANOMALY":201.9118,"EPHEMERIS_TYPE":0,"CLASSIFICATION_TYPE":"U","NORAD_CAT_ID":67964,"ELEMENT_SET_NO":999,"REV_AT_EPOCH":488,"BSTAR":-0.039568,"MEAN_MOTION_DOT":-0.02349688,"MEAN_MOTION_DDOT":0},{"OBJECT_NAME":"STARLINK-36806","OBJECT_ID":"2026-038E","EPOCH":"2026-03-20T04:00:01.999584","MEAN_MOTION":15.6142072,"ECCENTRICITY":0.0001369,"INCLINATION":97.2854,"RA_OF_ASC_NODE":89.9754,"ARG_OF_PERICENTER":87.9466,"MEAN_ANOMALY":311.0983,"EPHEMERIS_TYPE":0,"CLASSIFICATION_TYPE":"U","NORAD_CAT_ID":67965,"ELEMENT_SET_NO":999,"REV_AT_EPOCH":488,"BSTAR":-0.031125,"MEAN_MOTION_DOT":-0.02332811,"MEAN_MOTION_DDOT":0},{"OBJECT_NAME":"STARLINK-36820","OBJECT_ID":"2026-038F","EPOCH":"2026-03-20T04:00:01.999584","MEAN_MOTION":15.61805159,"ECCENTRICITY":0.0001452,"INCLINATION":97.2848,"RA_OF_ASC_NODE":89.9793,"ARG_OF_PERICENTER":87.6916,"MEAN_ANOMALY":320.9779,"EPHEMERIS_TYPE":0,"CLASSIFICATION_TYPE":"U","NORAD_CAT_ID":67966,"ELEMENT_SET_NO":999,"REV_AT_EPOCH":488,"BSTAR":-0.031051,"MEAN_MOTION_DOT":-0.02358785,"MEAN_MOTION_DDOT":0},{"OBJECT_NAME":"STARLINK-36819","OBJECT_ID":"2026-038G","EPOCH":"2026-03-20T04:00:01.999584","MEAN_MOTION":15.49196328,"ECCENTRICITY":0.00011,"INCLINATION":97.2851,"RA_OF_ASC_NODE":89.8398,"ARG_OF_PERICENTER":83.2961,"MEAN_ANOMALY":5.2138,"EPHEMERIS_TYPE":0,"CLASSIFICATION_TYPE":"U","NORAD_CAT_ID":67967,"ELEMENT_SET_NO":999,"REV_AT_EPOCH":488,"BSTAR":-0.00040461,"MEAN_MOTION_DOT":-0.0002204,"MEAN_MOTION_DDOT":0},{"OBJECT_NAME":"STARLINK-36812","OBJECT_ID":"2026-038H","EPOCH":"2026-03-20T04:00:01.999584","MEAN_MOTION":15.62194967,"ECCENTRICITY":0.0001527,"INCLINATION":97.2851,"RA_OF_ASC_NODE":89.9862,"ARG_OF_PERICENTER":78.3213,"MEAN_ANOMALY":346.0603,"EPHEMERIS_TYPE":0,"CLASSIFICATION_TYPE":"U","NORAD_CAT_ID":67968,"ELEMENT_SET_NO":999,"REV_AT_EPOCH":488,"BSTAR":-0.030367,"MEAN_MOTION_DOT":-0.02344287,"MEAN_MOTION_DDOT":0},{"OBJECT_NAME":"STARLINK-36709","OBJECT_ID":"2026-038J","EPOCH":"2026-03-20T04:00:01.999584","MEAN_MOTION":15.6195565,"ECCENTRICITY":0.0001468,"INCLINATION":97.2857,"RA_OF_ASC_NODE":89.9911,"ARG_OF_PERICENTER":77.2308,"MEAN_ANOMALY":358.9666,"EPHEMERIS_TYPE":0,"CLASSIFICATION_TYPE":"U","NORAD_CAT_ID":67969,"ELEMENT_SET_NO":999,"REV_AT_EPOCH":488,"BSTAR":-0.030483,"MEAN_MOTION_DOT":-0.02332847,"MEAN_MOTION_DDOT":0},{"OBJECT_NAME":"STARLINK-36319","OBJECT_ID":"2026-038K","EPOCH":"2026-03-20T04:00:01.999584","MEAN_MOTION":15.56697736,"ECCENTRICITY":0.000142,"INCLINATION":97.2844,"RA_OF_ASC_NODE":89.9578,"ARG_OF_PERICENTER":56.4968,"MEAN_ANOMALY":312.9696,"EPHEMERIS_TYPE":0,"CLASSIFICATION_TYPE":"U","NORAD_CAT_ID":67970,"ELEMENT_SET_NO":999,"REV_AT_EPOCH":485,"BSTAR":-0.041041,"MEAN_MOTION_DOT":-0.02537558,"MEAN_MOTION_DDOT":0},{"OBJECT_NAME":"STARLINK-36710","OBJECT_ID":"2026-038L","EPOCH":"2026-03-20T04:00:01.999584","MEAN_MOTION":15.62901717,"ECCENTRICITY":0.0001397,"INCLINATION":97.2853,"RA_OF_ASC_NODE":89.999,"ARG_OF_PERICENTER":73.3413,"MEAN_ANOMALY":21.4004,"EPHEMERIS_TYPE":0,"CLASSIFICATION_TYPE":"U","NORAD_CAT_ID":67971,"ELEMENT_SET_NO":999,"REV_AT_EPOCH":488,"BSTAR":-0.029486,"MEAN_MOTION_DOT":-0.02340589,"MEAN_MOTION_DDOT":0},{"OBJECT_NAME":"STARLINK-36894","OBJECT_ID":"2026-038M","EPOCH":"2026-03-20T04:00:01.999584","MEAN_MOTION":15.63273973,"ECCENTRICITY":0.0001677,"INCLINATION":97.2856,"RA_OF_ASC_NODE":90.0023,"ARG_OF_PERICENTER":68.7688,"MEAN_ANOMALY":35.1982,"EPHEMERIS_TYPE":0,"CLASSIFICATION_TYPE":"U","NORAD_CAT_ID":67972,"ELEMENT_SET_NO":999,"REV_AT_EPOCH":488,"BSTAR":-0.029051,"MEAN_MOTION_DOT":-0.02340384,"MEAN_MOTION_DDOT":0},{"OBJECT_NAME":"STARLINK-36900","OBJECT_ID":"2026-038N","EPOCH":"2026-03-20T04:00:01.999584","MEAN_MOTION":15.4918824,"ECCENTRICITY":0.0001129,"INCLINATION":97.2846,"RA_OF_ASC_NODE":89.8984,"ARG_OF_PERICENTER":119.2918,"MEAN_ANOMALY":107.1071,"EPHEMERIS_TYPE":0,"CLASSIFICATION_TYPE":"U","NORAD_CAT_ID":67973,"ELEMENT_SET_NO":999,"REV_AT_EPOCH":488,"BSTAR":-0.00051327,"MEAN_MOTION_DOT":-0.00027906,"MEAN_MOTION_DDOT":0},{"OBJECT_NAME":"STARLINK-36901","OBJECT_ID":"2026-038P","EPOCH":"2026-03-20T04:00:01.999584","MEAN_MOTION":15.63367937,"ECCENTRICITY":0.0001762,"INCLINATION":97.2857,"RA_OF_ASC_NODE":90.0049,"ARG_OF_PERICENTER":70.4984,"MEAN_ANOMALY":40.2546,"EPHEMERIS_TYPE":0,"CLASSIFICATION_TYPE":"U","NORAD_CAT_ID":67974,"ELEMENT_SET_NO":999,"REV_AT_EPOCH":488,"BSTAR":-0.028979,"MEAN_MOTION_DOT":-0.02343,"MEAN_MOTION_DDOT":0},{"OBJECT_NAME":"STARLINK-36883","OBJECT_ID":"2026-038Q","EPOCH":"2026-03-20T04:00:01.999584","MEAN_MOTION":15.59617693,"ECCENTRICITY":0.0001644,"INCLINATION":97.2849,"RA_OF_ASC_NODE":90.0052,"ARG_OF_PERICENTER":68.7676,"MEAN_ANOMALY":41.4955,"EPHEMERIS_TYPE":0,"CLASSIFICATION_TYPE":"U","NORAD_CAT_ID":67975,"ELEMENT_SET_NO":999,"REV_AT_EPOCH":488,"BSTAR":-0.033327,"MEAN_MOTION_DOT":-0.02330714,"MEAN_MOTION_DDOT":0},{"OBJECT_NAME":"STARLINK-36880","OBJECT_ID":"2026-038R","EPOCH":"2026-03-20T04:00:01.999584","MEAN_MOTION":15.49260117,"ECCENTRICITY":0.0002112,"INCLINATION":97.2847,"RA_OF_ASC_NODE":89.8738,"ARG_OF_PERICENTER":92.3684,"MEAN_ANOMALY":73.8925,"EPHEMERIS_TYPE":0,"CLASSIFICATION_TYPE":"U","NORAD_CAT_ID":67976,"ELEMENT_SET_NO":999,"REV_AT_EPOCH":488,"BSTAR":-0.0018374,"MEAN_MOTION_DOT":-0.0009903,"MEAN_MOTION_DDOT":0},{"OBJECT_NAME":"STARLINK-36904","OBJECT_ID":"2026-038S","EPOCH":"2026-03-20T04:00:01.999584","MEAN_MOTION":15.59446582,"ECCENTRICITY":0.0001521,"INCLINATION":97.2851,"RA_OF_ASC_NODE":90.0009,"ARG_OF_PERICENTER":65.6592,"MEAN_ANOMALY":34.764,"EPHEMERIS_TYPE":0,"CLASSIFICATION_TYPE":"U","NORAD_CAT_ID":67977,"ELEMENT_SET_NO":999,"REV_AT_EPOCH":488,"BSTAR":-0.033361,"MEAN_MOTION_DOT":-0.02319354,"MEAN_MOTION_DDOT":0},{"OBJECT_NAME":"STARLINK-36364","OBJECT_ID":"2026-038T","EPOCH":"2026-03-20T04:00:01.999584","MEAN_MOTION":15.65536014,"ECCENTRICITY":0.0001818,"INCLINATION":97.2856,"RA_OF_ASC_NODE":90.0277,"ARG_OF_PERICENTER":87.3818,"MEAN_ANOMALY":91.7223,"EPHEMERIS_TYPE":0,"CLASSIFICATION_TYPE":"U","NORAD_CAT_ID":67978,"ELEMENT_SET_NO":999,"REV_AT_EPOCH":488,"BSTAR":-0.027427,"MEAN_MOTION_DOT":-0.02408293,"MEAN_MOTION_DDOT":0}]
